OBJECT_NAME,OBJECT_ID,EPOCH,MEAN_MOTION,ECCENTRICITY,INCLINATION,RA_OF_ASC_NODE,ARG_OF_PERICENTER,MEAN_ANOMALY,EPHEMERIS_TYPE,CLASSIFICATION_TYPE,NORAD_CAT_ID,ELEMENT_SET_NO,REV_AT_EPOCH,BSTAR,MEAN_MOTION_DOT,MEAN_MOTION_DDOT
STARLINK-36155,2025-286P,2026-06-08T02:54:24.640128,15.34371831,.0001376,53.1603,297.6004,49.5735,310.5388,0,U,66938,999,2927,.18869E-2,.63862E-3,0
STARLINK-36154,2025-286Q,2026-06-08T02:42:17.750880,15.34390190,.0000835,53.1609,297.5486,63.8587,296.2502,0,U,66939,999,2927,.10068E-2,.33782E-3,0
STARLINK-36121,2025-286R,2026-06-07T16:03:53.598240,15.34364106,.0001329,53.1609,299.7550,60.5464,299.5671,0,U,66940,999,2920,.60223E-3,.20002E-3,0
STARLINK-36088,2025-286S,2026-06-08T02:15:01.440288,15.34376716,.0001585,53.1607,297.4254,97.9968,262.1215,0,U,66941,999,2927,.79641E-3,.26607E-3,0
STARLINK-36100,2025-286T,2026-06-07T21:03:27.817056,15.34383237,.0001051,53.1595,298.9182,82.1248,277.9874,0,U,66942,999,2916,.10355E-2,.34754E-3,0
STARLINK-36109,2025-286U,2026-06-08T02:39:15.755328,15.34388657,.000144,53.1611,297.5320,75.7684,284.3478,0,U,66943,999,2920,.10273E-2,.3448E-3,0
STARLINK-36112,2025-286V,2026-06-07T17:04:21.838368,15.34362332,.0001336,53.1622,299.3087,61.3976,298.7161,0,U,66944,999,2921,.76623E-3,.25569E-3,0
STARLINK-36110,2025-286W,2026-06-07T16:19:02.375040,15.34367487,.0001459,53.1604,299.8191,74.4810,285.6353,0,U,66945,999,2920,.72105E-3,.24039E-3,0
STARLINK-36115,2025-286X,2026-06-07T20:48:18.260064,15.34422046,.000169,53.1599,298.8527,82.0704,278.0490,0,U,66946,999,2923,.19379E-2,.6572E-3,0
STARLINK-36089,2025-286Y,2026-06-07T19:35:41.070048,15.34413943,.0001331,53.1588,299.2481,103.9058,256.2093,0,U,66947,999,2922,.11777E-2,.39641E-3,0
STARLINK-36116,2025-286Z,2026-06-08T02:09:03.878208,15.34456794,.0000968,53.1601,298.1078,73.2027,286.9082,0,U,66948,999,2925,.16838E-2,.57049E-3,0
STARLINK-36096,2025-286AA,2026-06-08T03:54:52.733376,15.34394108,.0001243,53.1599,297.1467,95.7270,264.3874,0,U,66949,999,2928,.693E-3,.23106E-3,0
STARLINK-36111,2025-286AB,2026-06-08T02:18:03.117024,15.34387524,.0001538,53.1600,297.4348,80.5842,279.5335,0,U,66950,999,2927,.87977E-3,.29453E-3,0
STARLINK-35999,2025-286AC,2026-06-07T20:57:24.304608,15.34377249,.0001145,53.1598,298.8889,87.3237,272.7896,0,U,66951,999,2923,.1055E-2,.3541E-3,0
STARLINK-36122,2025-286AD,2026-06-07T17:25:33.803616,15.34368659,.0001194,53.1609,299.3976,84.6912,275.4227,0,U,66952,999,2921,.12152E-2,.40865E-3,0
HULIANWANG DIGUI-114,2025-287A,2026-06-08T01:49:30.115200,13.24411425,.0001845,86.4929,285.4454,111.5447,248.5883,0,U,66953,999,2413,.11627E-3,.65E-6,0
HULIANWANG DIGUI-115,2025-287B,2026-06-08T01:37:46.454592,13.24428695,.0001882,86.4945,285.4714,115.9278,244.2050,0,U,66954,999,2413,.12592E-3,.69E-6,0
HULIANWANG DIGUI-116,2025-287C,2026-06-08T01:27:44.237088,13.24410982,.0001942,86.4885,285.3559,113.8513,246.2825,0,U,66955,999,2413,.14371E-3,.76E-6,0
HULIANWANG DIGUI-117,2025-287D,2026-06-08T03:05:41.815680,13.24413596,.0002812,86.4945,285.4399,79.8543,280.2908,0,U,66956,999,2414,.10305E-3,.59E-6,0
HULIANWANG DIGUI-118,2025-287E,2026-06-07T21:28:24.161376,13.24412370,.0001855,86.4921,285.4685,112.9472,247.1858,0,U,66957,999,2411,.1154E-3,.64E-6,0
STARLINK-35887,2025-288A,2026-06-08T02:03:59.961888,15.27577810,.0002604,42.9988,232.8397,303.3610,56.6992,0,U,66959,999,2911,.3126E-3,.8349E-4,0
STARLINK-35879,2025-288B,2026-06-07T21:41:52.600128,15.27587371,.0002642,42.9900,234.0472,283.8295,76.2262,0,U,66960,999,2908,.62192E-3,.16896E-3,0
STARLINK-35761,2025-288C,2026-06-07T22:26:04.549632,15.27577736,.0001834,43.0047,233.4241,294.3709,65.6951,0,U,66961,999,2909,.66722E-3,.18142E-3,0
STARLINK-35874,2025-288D,2026-06-07T22:20:43.812096,15.27595840,.0003091,43.0028,234.2523,266.6002,93.4497,0,U,66962,999,2908,.59602E-3,.16184E-3,0
STARLINK-36133,2025-288E,2026-06-07T21:43:43.478112,15.27581459,.0002059,42.9973,234.0555,266.0215,94.0401,0,U,66963,999,2908,.92302E-3,.25226E-3,0
STARLINK-36104,2025-288F,2026-06-07T22:07:47.485632,15.27564237,.000104,43.0002,234.1895,291.6524,68.4216,0,U,66964,999,2908,.59358E-3,.161E-3,0
STARLINK-36067,2025-288G,2026-06-08T01:51:02.590848,15.27593136,.000239,42.9996,232.7674,257.8582,102.2002,0,U,66965,999,2911,.77624E-3,.21169E-3,0
STARLINK-36139,2025-288H,2026-06-07T11:45:28.974816,15.27574362,.0002549,42.9985,236.0999,280.2194,79.8370,0,U,66966,999,2902,.59893E-3,.16253E-3,0
STARLINK-36136,2025-288J,2026-06-07T21:25:13.345248,15.27573254,.0001737,42.9996,233.9585,262.2831,97.7823,0,U,66967,999,2908,.7561E-3,.20598E-3,0
STARLINK-36152,2025-288K,2026-06-07T21:58:31.763424,15.27575701,.0001814,43.0027,234.1355,260.1873,99.8774,0,U,66968,999,2908,.85739E-3,.23403E-3,0
