STARLINK-36155          
1 66938U 25286P   26159.12111852  .00063862  00000+0  18869-2 0  9997
2 66938  53.1603 297.6004 0001376  49.5735 310.5388 15.34371831 29274
STARLINK-36154          
1 66939U 25286Q   26159.11270545  .00033782  00000+0  10068-2 0  9993
2 66939  53.1609 297.5486 0000835  63.8587 296.2502 15.34390190 29274
STARLINK-36121          
1 66940U 25286R   26158.66937035  .00020002  00000+0  60223-3 0  9998
2 66940  53.1609 299.7550 0001329  60.5464 299.5671 15.34364106 29203
STARLINK-36088          
1 66941U 25286S   26159.09376667  .00026607  00000+0  79641-3 0  9996
2 66941  53.1607 297.4254 0001585  97.9968 262.1215 15.34376716 29272
STARLINK-36100          
1 66942U 25286T   26158.87740529  .00034754  00000+0  10355-2 0  9992
2 66942  53.1595 298.9182 0001051  82.1248 277.9874 15.34383237 29169
STARLINK-36109          
1 66943U 25286U   26159.11059902  .00034480  00000+0  10273-2 0  9994
2 66943  53.1611 297.5320 0001440  75.7684 284.3478 15.34388657 29200
STARLINK-36112          
1 66944U 25286V   26158.71136387  .00025569  00000+0  76623-3 0  9993
2 66944  53.1622 299.3087 0001336  61.3976 298.7161 15.34362332 29213
STARLINK-36110          
1 66945U 25286W   26158.67988860  .00024039  00000+0  72105-3 0  9992
2 66945  53.1604 299.8191 0001459  74.4810 285.6353 15.34367487 29206
STARLINK-36115          
1 66946U 25286X   26158.86687801  .00065720  00000+0  19379-2 0  9990
2 66946  53.1599 298.8527 0001690  82.0704 278.0490 15.34422046 29230
STARLINK-36089          
1 66947U 25286Y   26158.81644757  .00039641  00000+0  11777-2 0  9996
2 66947  53.1588 299.2481 0001331 103.9058 256.2093 15.34413943 29222
STARLINK-36116          
1 66948U 25286Z   26159.08962822  .00057049  00000+0  16838-2 0  9998
2 66948  53.1601 298.1078 0000968  73.2027 286.9082 15.34456794 29251
STARLINK-36096          
1 66949U 25286AA  26159.16311034  .00023106  00000+0  69300-3 0  9991
2 66949  53.1599 297.1467 0001243  95.7270 264.3874 15.34394108 29287
STARLINK-36111          
1 66950U 25286AB  26159.09586941  .00029453  00000+0  87977-3 0  9997
2 66950  53.1600 297.4348 0001538  80.5842 279.5335 15.34387524 29270
STARLINK-35999          
1 66951U 25286AC  26158.87319797  .00035410  00000+0  10550-2 0  9998
2 66951  53.1598 298.8889 0001145  87.3237 272.7896 15.34377249 29235
STARLINK-36122          
1 66952U 25286AD  26158.72608569  .00040865  00000+0  12152-2 0  9991
2 66952  53.1609 299.3976 0001194  84.6912 275.4227 15.34368659 29217
HULIANWANG DIGUI-114    
1 66953U 25287A   26159.07604300  .00000065  00000+0  11627-3 0  9996
2 66953  86.4929 285.4454 0001845 111.5447 248.5883 13.24411425 24137
HULIANWANG DIGUI-115    
1 66954U 25287B   26159.06789878  .00000069  00000+0  12592-3 0  9996
2 66954  86.4945 285.4714 0001882 115.9278 244.2050 13.24428695 24132
HULIANWANG DIGUI-116    
1 66955U 25287C   26159.06092867  .00000076  00000+0  14371-3 0  9997
2 66955  86.4885 285.3559 0001942 113.8513 246.2825 13.24410982 24130
HULIANWANG DIGUI-117    
1 66956U 25287D   26159.12895620  .00000059  00000+0  10305-3 0  9997
2 66956  86.4945 285.4399 0002812  79.8543 280.2908 13.24413596 24147
HULIANWANG DIGUI-118    
1 66957U 25287E   26158.89472409  .00000064  00000+0  11540-3 0  9995
2 66957  86.4921 285.4685 0001855 112.9472 247.1858 13.24412370 24118
STARLINK-35887          
1 66959U 25288A   26159.08611067  .00008349  00000+0  31260-3 0  9990
2 66959  42.9988 232.8397 0002604 303.3610  56.6992 15.27577810 29112
STARLINK-35879          
1 66960U 25288B   26158.90408102  .00016896  00000+0  62192-3 0  9990
2 66960  42.9900 234.0472 0002642 283.8295  76.2262 15.27587371 29086
STARLINK-35761          
1 66961U 25288C   26158.93477488  .00018142  00000+0  66722-3 0  9996
2 66961  43.0047 233.4241 0001834 294.3709  65.6951 15.27577736 29099
STARLINK-35874          
1 66962U 25288D   26158.93106264  .00016184  00000+0  59602-3 0  9991
2 66962  43.0028 234.2523 0003091 266.6002  93.4497 15.27595840 29085
STARLINK-36133          
1 66963U 25288E   26158.90536433  .00025226  00000+0  92302-3 0  9995
2 66963  42.9973 234.0555 0002059 266.0215  94.0401 15.27581459 29082
STARLINK-36104          
1 66964U 25288F   26158.92207738  .00016100  00000+0  59358-3 0  9996
2 66964  43.0002 234.1895 0001040 291.6524  68.4216 15.27564237 29086
STARLINK-36067          
1 66965U 25288G   26159.07711332  .00021169  00000+0  77624-3 0  9991
2 66965  42.9996 232.7674 0002390 257.8582 102.2002 15.27593136 29117
STARLINK-36139          
1 66966U 25288H   26158.48991869  .00016253  00000+0  59893-3 0  9997
2 66966  42.9985 236.0999 0002549 280.2194  79.8370 15.27574362 29025
STARLINK-36136          
1 66967U 25288J   26158.89251557  .00020598  00000+0  75610-3 0  9998
2 66967  42.9996 233.9585 0001737 262.2831  97.7823 15.27573254 29088
STARLINK-36152          
1 66968U 25288K   26158.91564541  .00023403  00000+0  85739-3 0  9993
2 66968  43.0027 234.1355 0001814 260.1873  99.8774 15.27575701 29080
